{
  "type": "FeatureCollection",
  "features": [
    {
      "type": "Feature",
      "properties": {
        "norad_id": 44624,
        "name": "EUTELSAT 5 WEST B (EGNOS/PRN 121)",
        "group": "gnss",
        "lat": 0.021800690950681715,
        "lon": 146.1043218530111,
        "alt_km": 35792.023616059414,
        "timestamp": "2025-12-09T04:51:47.738903+00:00",
        "meta_object_name": "EUTELSAT 5 WEST B (EGNOS/PRN 121)",
        "meta_object_id": "2019-067A",
        "meta_epoch": "2025-12-08T18:43:01.461792",
        "meta_mean_motion": 1.00270965,
        "meta_eccentricity": 0.0003533,
        "meta_inclination": 0.0649,
        "meta_ra_of_asc_node": 340.5321,
        "meta_arg_of_pericenter": 278.06,
        "meta_mean_anomaly": 94.9453,
        "meta_ephemeris_type": 0,
        "meta_classification_type": "U",
        "meta_norad_cat_id": 44624,
        "meta_element_set_no": 999,
        "meta_rev_at_epoch": 2252,
        "meta_bstar": 0,
        "meta_mean_motion_dot": -4e-07,
        "meta_mean_motion_ddot": 0,
        "tle_line1": "1 44624U 19067A   25342.77987803 -.00000040  00000+0  00000+0 0  9991",
        "tle_line2": "2 44624   0.0649 340.5321 0003533 278.0600  94.9453  1.00270965 22521"
      },
      "geometry": {
        "type": "Point",
        "coordinates": [
          146.1043218530111,
          0.021800690950681715
        ]
      }
    },
    {
      "type": "Feature",
      "properties": {
        "norad_id": 44709,
        "name": "BEIDOU-3 IGSO-3 (C40)",
        "group": "gnss",
        "lat": -14.588761971589078,
        "lon": -87.51103188314589,
        "alt_km": 35960.275615999104,
        "timestamp": "2025-12-09T04:51:47.738924+00:00",
        "meta_object_name": "BEIDOU-3 IGSO-3 (C40)",
        "meta_object_id": "2019-073A",
        "meta_epoch": "2025-11-20T07:11:22.740000",
        "meta_mean_motion": 1.00250097,
        "meta_eccentricity": 0.0044538,
        "meta_inclination": 55.163,
        "meta_ra_of_asc_node": 283.159,
        "meta_arg_of_pericenter": 191.5856,
        "meta_mean_anomaly": 168.2409,
        "meta_ephemeris_type": 0,
        "meta_classification_type": "U",
        "meta_norad_cat_id": 44709,
        "meta_element_set_no": 999,
        "meta_rev_at_epoch": 2236,
        "meta_bstar": 0,
        "meta_mean_motion_dot": -2.06e-06,
        "meta_mean_motion_ddot": 0,
        "tle_line1": "1 44709U 19073A   25324.29956875 -.00000206  00000+0  00000+0 0  9998",
        "tle_line2": "2 44709  55.1630 283.1590 0044538 191.5856 168.2409  1.00250097 22360"
      },
      "geometry": {
        "type": "Point",
        "coordinates": [
          -87.51103188314589,
          -14.588761971589078
        ]
      }
    },
    {
      "type": "Feature",
      "properties": {
        "norad_id": 44793,
        "name": "BEIDOU-3 M22 (C44)",
        "group": "gnss",
        "lat": 34.477617255942995,
        "lon": 96.70024355268815,
        "alt_km": 21529.904186707532,
        "timestamp": "2025-12-09T04:51:47.738948+00:00",
        "meta_object_name": "BEIDOU-3 M22 (C44)",
        "meta_object_id": "2019-078A",
        "meta_epoch": "2025-12-05T05:48:12.053952",
        "meta_mean_motion": 1.86231816,
        "meta_eccentricity": 0.00057288,
        "meta_inclination": 54.1154,
        "meta_ra_of_asc_node": 306.6493,
        "meta_arg_of_pericenter": 22.8633,
        "meta_mean_anomaly": 337.1445,
        "meta_ephemeris_type": 0,
        "meta_classification_type": "U",
        "meta_norad_cat_id": 44793,
        "meta_element_set_no": 999,
        "meta_rev_at_epoch": 4103,
        "meta_bstar": 0,
        "meta_mean_motion_dot": -6.9e-07,
        "meta_mean_motion_ddot": 0,
        "tle_line1": "1 44793U 19078A   25339.24180618 -.00000069  00000+0  00000+0 0  9998",
        "tle_line2": "2 44793  54.1154 306.6493 0005728  22.8633 337.1445  1.86231816 41037"
      },
      "geometry": {
        "type": "Point",
        "coordinates": [
          96.70024355268815,
          34.477617255942995
        ]
      }
    },
    {
      "type": "Feature",
      "properties": {
        "norad_id": 44794,
        "name": "BEIDOU-3 M21 (C43)",
        "group": "gnss",
        "lat": 33.76872874872083,
        "lon": -24.581174396106682,
        "alt_km": 21515.358964734794,
        "timestamp": "2025-12-09T04:51:47.738965+00:00",
        "meta_object_name": "BEIDOU-3 M21 (C43)",
        "meta_object_id": "2019-078B",
        "meta_epoch": "2025-12-08T14:25:34.118976",
        "meta_mean_motion": 1.86227419,
        "meta_eccentricity": 0.0003835,
        "meta_inclination": 54.0855,
        "meta_ra_of_asc_node": 306.4969,
        "meta_arg_of_pericenter": 9.829,
        "meta_mean_anomaly": 350.1669,
        "meta_ephemeris_type": 0,
        "meta_classification_type": "U",
        "meta_norad_cat_id": 44794,
        "meta_element_set_no": 999,
        "meta_rev_at_epoch": 4110,
        "meta_bstar": 0,
        "meta_mean_motion_dot": -7.4e-07,
        "meta_mean_motion_ddot": 0,
        "tle_line1": "1 44794U 19078B   25342.60108934 -.00000074  00000+0  00000+0 0  9990",
        "tle_line2": "2 44794  54.0855 306.4969 0003835   9.8290 350.1669  1.86227419 41107"
      },
      "geometry": {
        "type": "Point",
        "coordinates": [
          -24.581174396106682,
          33.76872874872083
        ]
      }
    },
    {
      "type": "Feature",
      "properties": {
        "norad_id": 44850,
        "name": "COSMOS 2544 (759)",
        "group": "gnss",
        "lat": 7.490683900726825,
        "lon": -103.35564201699616,
        "alt_km": 19121.790797966736,
        "timestamp": "2025-12-09T04:51:47.738982+00:00",
        "meta_object_name": "COSMOS 2544 (759)",
        "meta_object_id": "2019-088A",
        "meta_epoch": "2025-12-06T03:54:29.774304",
        "meta_mean_motion": 2.13101814,
        "meta_eccentricity": 0.0013818,
        "meta_inclination": 65.4565,
        "meta_ra_of_asc_node": 80.1786,
        "meta_arg_of_pericenter": 249.2792,
        "meta_mean_anomaly": 110.5784,
        "meta_ephemeris_type": 0,
        "meta_classification_type": "U",
        "meta_norad_cat_id": 44850,
        "meta_element_set_no": 999,
        "meta_rev_at_epoch": 4660,
        "meta_bstar": 0,
        "meta_mean_motion_dot": -1.6e-07,
        "meta_mean_motion_ddot": 0,
        "tle_line1": "1 44850U 19088A   25340.16284461 -.00000016  00000+0  00000+0 0  9999",
        "tle_line2": "2 44850  65.4565  80.1786 0013818 249.2792 110.5784  2.13101814 46603"
      },
      "geometry": {
        "type": "Point",
        "coordinates": [
          -103.35564201699616,
          7.490683900726825
        ]
      }
    },
    {
      "type": "Feature",
      "properties": {
        "norad_id": 44864,
        "name": "BEIDOU-3 M19 (C41)",
        "group": "gnss",
        "lat": -45.49909377504552,
        "lon": -68.39492383770508,
        "alt_km": 21499.309335671882,
        "timestamp": "2025-12-09T04:51:47.739000+00:00",
        "meta_object_name": "BEIDOU-3 M19 (C41)",
        "meta_object_id": "2019-090A",
        "meta_epoch": "2025-12-02T22:27:31.551840",
        "meta_mean_motion": 1.86231053,
        "meta_eccentricity": 0.00175607,
        "meta_inclination": 56.3847,
        "meta_ra_of_asc_node": 69.2872,
        "meta_arg_of_pericenter": 284.9296,
        "meta_mean_anomaly": 72.494,
        "meta_ephemeris_type": 0,
        "meta_classification_type": "U",
        "meta_norad_cat_id": 44864,
        "meta_element_set_no": 999,
        "meta_rev_at_epoch": 4057,
        "meta_bstar": 0,
        "meta_mean_motion_dot": -4.9e-07,
        "meta_mean_motion_ddot": 0,
        "tle_line1": "1 44864U 19090A   25336.93578185 -.00000049  00000+0  00000+0 0  9992",
        "tle_line2": "2 44864  56.3847  69.2872 0017560 284.9296  72.4940  1.86231053 40575"
      },
      "geometry": {
        "type": "Point",
        "coordinates": [
          -68.39492383770508,
          -45.49909377504552
        ]
      }
    },
    {
      "type": "Feature",
      "properties": {
        "norad_id": 44865,
        "name": "BEIDOU-3 M20 (C42)",
        "group": "gnss",
        "lat": -25.639614904363377,
        "lon": 50.535666176521794,
        "alt_km": 21495.73861429226,
        "timestamp": "2025-12-09T04:51:47.739017+00:00",
        "meta_object_name": "BEIDOU-3 M20 (C42)",
        "meta_object_id": "2019-090B",
        "meta_epoch": "2025-12-08T06:57:34.455168",
        "meta_mean_motion": 1.8623116,
        "meta_eccentricity": 0.00149301,
        "meta_inclination": 56.3913,
        "meta_ra_of_asc_node": 69.143,
        "meta_arg_of_pericenter": 297.776,
        "meta_mean_anomaly": 138.9742,
        "meta_ephemeris_type": 0,
        "meta_classification_type": "U",
        "meta_norad_cat_id": 44865,
        "meta_element_set_no": 999,
        "meta_rev_at_epoch": 4066,
        "meta_bstar": 0,
        "meta_mean_motion_dot": -4.5e-07,
        "meta_mean_motion_ddot": 0,
        "tle_line1": "1 44865U 19090B   25342.28998212 -.00000045  00000+0  00000+0 0  9991",
        "tle_line2": "2 44865  56.3913  69.1430 0014930 297.7760 138.9742  1.86231160 40662"
      },
      "geometry": {
        "type": "Point",
        "coordinates": [
          50.535666176521794,
          -25.639614904363377
        ]
      }
    }
  ]
}